{
    "links": {
        "self": "http://www.neowsapp.com/rest/v1/neo/3618404?api_key=iIulBulltgU6a56xZRHN4H3l9WmuAYTsLGpBGhQ2"
    },
    "id": "3618404",
    "neo_reference_id": "3618404",
    "name": "(2012 WR3)",
    "designation": "2012 WR3",
    "nasa_jpl_url": "http://ssd.jpl.nasa.gov/sbdb.cgi?sstr=3618404",
    "absolute_magnitude_h": 25.5,
    "estimated_diameter": {
        "kilometers": {
            "estimated_diameter_min": 0.0211132445,
            "estimated_diameter_max": 0.0472106499
        },
        "meters": {
            "estimated_diameter_min": 21.113244479,
            "estimated_diameter_max": 47.2106498806
        },
        "miles": {
            "estimated_diameter_min": 0.0131191578,
            "estimated_diameter_max": 0.0293353287
        },
        "feet": {
            "estimated_diameter_min": 69.2691770164,
            "estimated_diameter_max": 154.8905885541
        }
    },
    "is_potentially_hazardous_asteroid": false,
    "close_approach_data": [
        {
            "close_approach_date": "2012-11-18",
            "close_approach_date_full": "2012-Nov-18 19:30",
            "epoch_date_close_approach": 1353267000000,
            "relative_velocity": {
                "kilometers_per_second": "10.1445933881",
                "kilometers_per_hour": "36520.5361972709",
                "miles_per_hour": "22692.4409499098"
            },
            "miss_distance": {
                "astronomical": "0.0238492753",
                "lunar": "9.2773680917",
                "kilometers": "3567800.785923611",
                "miles": "2216928.6080273918"
            },
            "orbiting_body": "Earth"
        }
    ],
    "orbital_data": {
        "orbit_id": "7",
        "orbit_determination_date": "2017-04-06 08:47:55",
        "first_observation_date": "2012-11-20",
        "last_observation_date": "2012-11-26",
        "data_arc_in_days": 6,
        "observations_used": 49,
        "orbit_uncertainty": "7",
        "minimum_orbit_intersection": ".0339757",
        "jupiter_tisserand_invariant": "3.240",
        "epoch_osculation": "2459000.5",
        "eccentricity": ".5811875674053214",
        "semi_major_axis": "2.418549892008653",
        "inclination": "11.07910175598198",
        "ascending_node_longitude": "238.8025227793165",
        "orbital_period": "1373.823696663411",
        "perihelion_distance": "1.012918763623741",
        "perihelion_argument": "165.35633713",
        "aphelion_distance": "3.824181020393564",
        "perihelion_time": "2458987.874052084367",
        "mean_anomaly": "3.308533155067229",
        "mean_motion": ".2620423573085307",
        "equinox": "J2000",
        "orbit_class": {
            "orbit_class_type": "APO",
            "orbit_class_description": "Near-Earth asteroid orbits which cross the Earth’s orbit similar to that of 1862 Apollo",
            "orbit_class_range": "a (semi-major axis) > 1.0 AU; q (perihelion) < 1.017 AU"
        }
    },
    "is_sentry_object": false
}